[{"OBJECT_NAME":"CURIUM ONE","OBJECT_ID":"2024-128H","EPOCH":"2026-03-09T16:29:14.303904","MEAN_MOTION":15.10847276,"ECCENTRICITY":0.00508907,"INCLINATION":61.979,"RA_OF_ASC_NODE":197.7537,"ARG_OF_PERICENTER":110.7183,"MEAN_ANOMALY":249.9377,"EPHEMERIS_TYPE":0,"CLASSIFICATION_TYPE":"U","NORAD_CAT_ID":60242,"ELEMENT_SET_NO":999,"REV_AT_EPOCH":9141,"BSTAR":0.00074106619,"MEAN_MOTION_DOT":0.00012574,"MEAN_MOTION_DDOT":0},{"OBJECT_NAME":"STARLINK-34558","OBJECT_ID":"2025-142AB","EPOCH":"2026-03-09T23:27:12.494880","MEAN_MOTION":14.98317882,"ECCENTRICITY":0.00022839,"INCLINATION":70.001,"RA_OF_ASC_NODE":313.7355,"ARG_OF_PERICENTER":257.8018,"MEAN_ANOMALY":102.2886,"EPHEMERIS_TYPE":0,"CLASSIFICATION_TYPE":"U","NORAD_CAT_ID":64721,"ELEMENT_SET_NO":999,"REV_AT_EPOCH":3950,"BSTAR":0.0004854361,"MEAN_MOTION_DOT":5.702e-5,"MEAN_MOTION_DDOT":0}]
